QIANFAN-97              
1 66039U 25233G   25356.48201699 -.02084456  00000+0 -27221+1 0  9993
2 66039  88.9933  61.1255 0017461  34.7679 325.4618 13.65831814  9313
QIANFAN-98              
1 66040U 25233H   25355.98308278 -.01958739  00000+0 -18497+1 0  9998
2 66040  88.9952  61.0925 0015387  23.9996 336.1889 13.85129780  9296
QIANFAN-99              
1 66041U 25233J   25356.42277415  .00000057  00000+0  53435-4 0  9990
2 66041  88.9958  61.1379 0015962  18.1290 342.0436 13.66578947  9307
QIANFAN-100             
1 66042U 25233K   25356.13257541 -.02098915  00000+0 -23048+1 0  9994
2 66042  88.9955  61.0935 0012149  21.4716 338.6957 13.76461704  9308
QIANFAN-101             
1 66043U 25233L   25356.55564305  .00000296  00000+0  11621-3 0  9998
2 66043  88.9952  60.8995 0014879  12.2300 347.9252 14.26681767  9443
QIANFAN-102             
1 66044U 25233M   25356.55555563  .00000056  00000+0  47636-4 0  9995
2 66044  88.9949  61.1026 0015148  19.4318 340.7419 13.71500169  9336
QIANFAN-103             
1 66045U 25233N   25356.50559806  .00000058  00000+0  52794-4 0  9998
2 66045  88.9951  61.1314 0015308  18.8663 341.3062 13.68376456  9319
QIANFAN-104             
1 66046U 25233P   25356.57020462  .00000051  00000+0  42293-4 0  9993
2 66046  88.9954  61.1049 0014538  22.5826 337.5974 13.71542707  9334
